{
  "type": "FeatureCollection",
  "features": [
    {
      "type": "Feature",
      "properties": {
        "norad_id": 39109,
        "name": "COSMOS 2251 DEB",
        "group": "cosmos-2251-debris",
        "lat": 14.310161920239656,
        "lon": 13.344093335959373,
        "alt_km": 687.5512902108558,
        "timestamp": "2025-12-26T22:28:06.183788+00:00",
        "meta_object_name": "COSMOS 2251 DEB",
        "meta_object_id": "1993-036BTY",
        "meta_epoch": "2025-12-26T05:56:43.253376",
        "meta_mean_motion": 14.70799754,
        "meta_eccentricity": 0.0059603,
        "meta_inclination": 74.0417,
        "meta_ra_of_asc_node": 198.8655,
        "meta_arg_of_pericenter": 299.4353,
        "meta_mean_anomaly": 182.2563,
        "meta_ephemeris_type": 0,
        "meta_classification_type": "U",
        "meta_norad_cat_id": 39109,
        "meta_element_set_no": 999,
        "meta_rev_at_epoch": 65372,
        "meta_bstar": 0.00047481,
        "meta_mean_motion_dot": 2.947e-05,
        "meta_mean_motion_ddot": 0,
        "tle_line1": "1 39109U 93036BTY 25360.24772284  .00002947  00000+0  47481-3 0  9993",
        "tle_line2": "2 39109  74.0417 198.8655 0059603 299.4353 182.2563 14.70799754653720"
      },
      "geometry": {
        "type": "Point",
        "coordinates": [
          13.344093335959373,
          14.310161920239656
        ]
      }
    },
    {
      "type": "Feature",
      "properties": {
        "norad_id": 39110,
        "name": "COSMOS 2251 DEB",
        "group": "cosmos-2251-debris",
        "lat": 62.10477422722085,
        "lon": 66.67607989105989,
        "alt_km": 712.833407099567,
        "timestamp": "2025-12-26T22:28:06.183798+00:00",
        "meta_object_name": "COSMOS 2251 DEB",
        "meta_object_id": "1993-036BTZ",
        "meta_epoch": "2025-12-17T22:04:59.920608",
        "meta_mean_motion": 14.72312711,
        "meta_eccentricity": 0.00972569,
        "meta_inclination": 73.9594,
        "meta_ra_of_asc_node": 51.3772,
        "meta_arg_of_pericenter": 282.7235,
        "meta_mean_anomaly": 255.0933,
        "meta_ephemeris_type": 0,
        "meta_classification_type": "U",
        "meta_norad_cat_id": 39110,
        "meta_element_set_no": 999,
        "meta_rev_at_epoch": 62560,
        "meta_bstar": 0.00028872963,
        "meta_mean_motion_dot": 1.929e-05,
        "meta_mean_motion_ddot": 0,
        "tle_line1": "1 39110U 93036BTZ 25351.92013797  .00001929  00000+0  28873-3 0  9990",
        "tle_line2": "2 39110  73.9594  51.3772 0097256 282.7235 255.0933 14.72312711625601"
      },
      "geometry": {
        "type": "Point",
        "coordinates": [
          66.67607989105989,
          62.10477422722085
        ]
      }
    },
    {
      "type": "Feature",
      "properties": {
        "norad_id": 39111,
        "name": "COSMOS 2251 DEB",
        "group": "cosmos-2251-debris",
        "lat": 43.46009658498635,
        "lon": 27.32980401177133,
        "alt_km": 507.78458651558867,
        "timestamp": "2025-12-26T22:28:06.183809+00:00",
        "meta_object_name": "COSMOS 2251 DEB",
        "meta_object_id": "1993-036BUA",
        "meta_epoch": "2025-12-01T22:58:55.551360",
        "meta_mean_motion": 15.11912111,
        "meta_eccentricity": 0.00109111,
        "meta_inclination": 74.0059,
        "meta_ra_of_asc_node": 63.5328,
        "meta_arg_of_pericenter": 39.1207,
        "meta_mean_anomaly": 321.0773,
        "meta_ephemeris_type": 0,
        "meta_classification_type": "U",
        "meta_norad_cat_id": 39111,
        "meta_element_set_no": 999,
        "meta_rev_at_epoch": 8982,
        "meta_bstar": 0.0056424119,
        "meta_mean_motion_dot": 0.00098096,
        "meta_mean_motion_ddot": 0,
        "tle_line1": "1 39111U 93036BUA 25335.95758740  .00098096  00000+0  56424-2 0  9993",
        "tle_line2": "2 39111  74.0059  63.5328 0010911  39.1207 321.0773 15.11912111 89826"
      },
      "geometry": {
        "type": "Point",
        "coordinates": [
          27.32980401177133,
          43.46009658498635
        ]
      }
    },
    {
      "type": "Feature",
      "properties": {
        "norad_id": 39546,
        "name": "COSMOS 2251 DEB",
        "group": "cosmos-2251-debris",
        "lat": 46.66157052470084,
        "lon": 125.9263062825256,
        "alt_km": 610.3498285917985,
        "timestamp": "2025-12-26T22:28:06.183819+00:00",
        "meta_object_name": "COSMOS 2251 DEB",
        "meta_object_id": "1993-036BUC",
        "meta_epoch": "2025-12-25T23:43:29.901792",
        "meta_mean_motion": 14.92423916,
        "meta_eccentricity": 0.00441766,
        "meta_inclination": 73.9984,
        "meta_ra_of_asc_node": 110.1282,
        "meta_arg_of_pericenter": 268.5,
        "meta_mean_anomaly": 91.1122,
        "meta_ephemeris_type": 0,
        "meta_classification_type": "U",
        "meta_norad_cat_id": 39546,
        "meta_element_set_no": 999,
        "meta_rev_at_epoch": 64634,
        "meta_bstar": 0.0015434889,
        "meta_mean_motion_dot": 0.00016116,
        "meta_mean_motion_ddot": 0,
        "tle_line1": "1 39546U 93036BUC 25359.98854053  .00016116  00000+0  15435-2 0  9998",
        "tle_line2": "2 39546  73.9984 110.1282 0044176 268.5000  91.1122 14.92423916646347"
      },
      "geometry": {
        "type": "Point",
        "coordinates": [
          125.9263062825256,
          46.66157052470084
        ]
      }
    },
    {
      "type": "Feature",
      "properties": {
        "norad_id": 39547,
        "name": "COSMOS 2251 DEB",
        "group": "cosmos-2251-debris",
        "lat": -73.94761954447958,
        "lon": -105.0358675811574,
        "alt_km": 559.4932118362785,
        "timestamp": "2025-12-26T22:28:06.183830+00:00",
        "meta_object_name": "COSMOS 2251 DEB",
        "meta_object_id": "1993-036BUD",
        "meta_epoch": "2025-12-23T08:58:43.079808",
        "meta_mean_motion": 15.04053977,
        "meta_eccentricity": 0.00057754,
        "meta_inclination": 74.0016,
        "meta_ra_of_asc_node": 356.5965,
        "meta_arg_of_pericenter": 355.0071,
        "meta_mean_anomaly": 72.813,
        "meta_ephemeris_type": 0,
        "meta_classification_type": "U",
        "meta_norad_cat_id": 39547,
        "meta_element_set_no": 999,
        "meta_rev_at_epoch": 64185,
        "meta_bstar": 0.003298855,
        "meta_mean_motion_dot": 0.00045935,
        "meta_mean_motion_ddot": 0,
        "tle_line1": "1 39547U 93036BUD 25357.37410972  .00045935  00000+0  32989-2 0  9992",
        "tle_line2": "2 39547  74.0016 356.5965 0005775 355.0071  72.8130 15.04053977641858"
      },
      "geometry": {
        "type": "Point",
        "coordinates": [
          -105.0358675811574,
          -73.94761954447958
        ]
      }
    },
    {
      "type": "Feature",
      "properties": {
        "norad_id": 39553,
        "name": "COSMOS 2251 DEB",
        "group": "cosmos-2251-debris",
        "lat": 6.080563921442132,
        "lon": 123.68628772564634,
        "alt_km": 907.5774874802255,
        "timestamp": "2025-12-26T22:28:06.183840+00:00",
        "meta_object_name": "COSMOS 2251 DEB",
        "meta_object_id": "1993-036BUK",
        "meta_epoch": "2025-12-19T04:26:08.787552",
        "meta_mean_motion": 13.99893274,
        "meta_eccentricity": 0.02023146,
        "meta_inclination": 74.0301,
        "meta_ra_of_asc_node": 318.8543,
        "meta_arg_of_pericenter": 93.0274,
        "meta_mean_anomaly": 269.4029,
        "meta_ephemeris_type": 0,
        "meta_classification_type": "U",
        "meta_norad_cat_id": 39553,
        "meta_element_set_no": 999,
        "meta_rev_at_epoch": 75707,
        "meta_bstar": 0.00037697212,
        "meta_mean_motion_dot": 6.38e-06,
        "meta_mean_motion_ddot": 0,
        "tle_line1": "1 39553U 93036BUK 25353.18482393  .00000638  00000+0  37697-3 0  9993",
        "tle_line2": "2 39553  74.0301 318.8543 0202314  93.0274 269.4029 13.99893274757074"
      },
      "geometry": {
        "type": "Point",
        "coordinates": [
          123.68628772564634,
          6.080563921442132
        ]
      }
    },
    {
      "type": "Feature",
      "properties": {
        "norad_id": 39554,
        "name": "COSMOS 2251 DEB",
        "group": "cosmos-2251-debris",
        "lat": 33.93343643351051,
        "lon": 44.10076738456638,
        "alt_km": 526.0469270393914,
        "timestamp": "2025-12-26T22:28:06.183851+00:00",
        "meta_object_name": "COSMOS 2251 DEB",
        "meta_object_id": "1993-036BUL",
        "meta_epoch": "2025-12-10T06:12:03.924864",
        "meta_mean_motion": 15.10130993,
        "meta_eccentricity": 0.0002993,
        "meta_inclination": 74.0187,
        "meta_ra_of_asc_node": 269.7383,
        "meta_arg_of_pericenter": 74.7531,
        "meta_mean_anomaly": 81.5927,
        "meta_ephemeris_type": 0,
        "meta_classification_type": "U",
        "meta_norad_cat_id": 39554,
        "meta_element_set_no": 999,
        "meta_rev_at_epoch": 64347,
        "meta_bstar": 0.0046896,
        "meta_mean_motion_dot": 0.000773,
        "meta_mean_motion_ddot": 0,
        "tle_line1": "1 39554U 93036BUL 25344.25837876  .00077300  00000+0  46896-2 0  9992",
        "tle_line2": "2 39554  74.0187 269.7383 0002993  74.7531  81.5927 15.10130993643471"
      },
      "geometry": {
        "type": "Point",
        "coordinates": [
          44.10076738456638,
          33.93343643351051
        ]
      }
    }
  ]
}